STARLINK-30708
1 57944U 23148K   25334.74395695  .00000018  00000+0  12744-4 0  9992
2 57944  53.1612 123.8505 0001176  92.9070 267.2065 15.30187070123270